{
  "norad_id": 47273,
  "name": "ONEWEB-0127",
  "history": [
    {
      "epoch": "2026-03-28T19:22:13.593792Z",
      "apogee_km": 1215.1738911116063,
      "perigee_km": 1212.2598339250162,
      "latitude_deg": 1.4038780144816974e-05,
      "longitude_deg": -110.143691993037,
      "height_km": 1216.2281951207094,
      "semi_major_axis_km": 7591.853862518311,
      "eccentricity": 0.00019192,
      "inclination_deg": 87.9005,
      "raan_deg": 6.6352,
      "arg_perigee_deg": 75.0332,
      "mean_anomaly_deg": 285.1009,
      "mean_motion_rev_day": 13.12444667
    },
    {
      "epoch": "2026-03-29T04:31:08.025312Z",
      "apogee_km": 1215.1720685996524,
      "perigee_km": 1212.26590612769,
      "latitude_deg": -3.373518597493506e-05,
      "longitude_deg": 112.17819466240427,
      "height_km": 1216.2326115662404,
      "semi_major_axis_km": 7591.8559873636705,
      "eccentricity": 0.0001914,
      "inclination_deg": 87.9005,
      "raan_deg": 6.5596,
      "arg_perigee_deg": 75.0845,
      "mean_anomaly_deg": 285.0495,
      "mean_motion_rev_day": 13.12444116
    }
  ]
}